[
  {
    "OBJECT_NAME": "STARLINK-4302",
    "OBJECT_ID": "22099S",
    "EPOCH": "2025-11-11T06:17:46.123296",
    "MEAN_MOTION": 15.01266948,
    "ECCENTRICITY": 0.0003094,
    "INCLINATION": 97.6027,
    "RA_OF_ASC_NODE": 74.2733,
    "ARG_OF_PERICENTER": 80.3558,
    "MEAN_ANOMALY": 279.8015,
    "EPHEMERIS_TYPE": 0,
    "CLASSIFICATION_TYPE": "U",
    "NORAD_CAT_ID": 53481,
    "ELEMENT_SET_NO": 999,
    "REV_AT_EPOCH": 17821,
    "BSTAR": 3.6763e-05,
    "MEAN_MOTION_DOT": 4.14e-06,
    "MEAN_MOTION_DDOT": 0.0,
    "TLE_LINE1": "1 53481U 22099S   25315.26233939  .00000414  00000+0  36763-4 0  9993",
    "TLE_LINE2": "2 53481  97.6027  74.2733 0003094  80.3558 279.8015 15.01266948178218",
    "COMMENT": "Grouped by shell and plane from TLE"
  },
  {
    "OBJECT_NAME": "STARLINK-4360",
    "OBJECT_ID": "22099T",
    "EPOCH": "2025-11-11T07:37:44.571072",
    "MEAN_MOTION": 15.01263847,
    "ECCENTRICITY": 4.12e-05,
    "INCLINATION": 97.6002,
    "RA_OF_ASC_NODE": 74.3488,
    "ARG_OF_PERICENTER": 121.6077,
    "MEAN_ANOMALY": 238.5188,
    "EPHEMERIS_TYPE": 0,
    "CLASSIFICATION_TYPE": "U",
    "NORAD_CAT_ID": 53482,
    "ELEMENT_SET_NO": 999,
    "REV_AT_EPOCH": 17822,
    "BSTAR": 7.6685e-05,
    "MEAN_MOTION_DOT": 9.27e-06,
    "MEAN_MOTION_DDOT": 0.0,
    "TLE_LINE1": "1 53482U 22099T   25315.31787698  .00000927  00000+0  76685-4 0  9992",
    "TLE_LINE2": "2 53482  97.6002  74.3488 0000412 121.6077 238.5188 15.01263847178225",
    "COMMENT": "Grouped by shell and plane from TLE"
  },
  {
    "OBJECT_NAME": "STARLINK-4426",
    "OBJECT_ID": "22099V",
    "EPOCH": "2025-11-11T07:30:14.279328",
    "MEAN_MOTION": 15.05648398,
    "ECCENTRICITY": 9.42e-05,
    "INCLINATION": 97.6027,
    "RA_OF_ASC_NODE": 74.5073,
    "ARG_OF_PERICENTER": 122.1114,
    "MEAN_ANOMALY": 238.0205,
    "EPHEMERIS_TYPE": 0,
    "CLASSIFICATION_TYPE": "U",
    "NORAD_CAT_ID": 53484,
    "ELEMENT_SET_NO": 999,
    "REV_AT_EPOCH": 17823,
    "BSTAR": 0.0003191,
    "MEAN_MOTION_DOT": 4.546e-05,
    "MEAN_MOTION_DDOT": 0.0,
    "TLE_LINE1": "1 53484U 22099V   25315.31266527  .00004546  00000+0  31910-3 0  9999",
    "TLE_LINE2": "2 53484  97.6027  74.5073 0000942 122.1114 238.0205 15.05648398178230",
    "COMMENT": "Grouped by shell and plane from TLE"
  },
  {
    "OBJECT_NAME": "STARLINK-4430",
    "OBJECT_ID": "22099W",
    "EPOCH": "2025-11-11T07:43:04.956096",
    "MEAN_MOTION": 15.01267138,
    "ECCENTRICITY": 0.0001495,
    "INCLINATION": 97.6029,
    "RA_OF_ASC_NODE": 74.3295,
    "ARG_OF_PERICENTER": 85.2831,
    "MEAN_ANOMALY": 274.8564,
    "EPHEMERIS_TYPE": 0,
    "CLASSIFICATION_TYPE": "U",
    "NORAD_CAT_ID": 53485,
    "ELEMENT_SET_NO": 999,
    "REV_AT_EPOCH": 17822,
    "BSTAR": 0.0,
    "MEAN_MOTION_DOT": -1.036e-05,
    "MEAN_MOTION_DDOT": 0.0,
    "TLE_LINE1": "1 53485U 22099W   25315.32158514 -.00001036  00000+0 -76149-4 0  9994",
    "TLE_LINE2": "2 53485  97.6029  74.3295 0001495  85.2831 274.8564 15.01267138178226",
    "COMMENT": "Grouped by shell and plane from TLE"
  },
  {
    "OBJECT_NAME": "STARLINK-4431",
    "OBJECT_ID": "22099X",
    "EPOCH": "2025-11-11T07:48:25.076736",
    "MEAN_MOTION": 15.01257821,
    "ECCENTRICITY": 0.0001994,
    "INCLINATION": 97.6027,
    "RA_OF_ASC_NODE": 74.334,
    "ARG_OF_PERICENTER": 91.6734,
    "MEAN_ANOMALY": 268.4719,
    "EPHEMERIS_TYPE": 0,
    "CLASSIFICATION_TYPE": "U",
    "NORAD_CAT_ID": 53486,
    "ELEMENT_SET_NO": 999,
    "REV_AT_EPOCH": 17822,
    "BSTAR": 3.0908e-05,
    "MEAN_MOTION_DOT": 3.39e-06,
    "MEAN_MOTION_DDOT": 0.0,
    "TLE_LINE1": "1 53486U 22099X   25315.32529024  .00000339  00000+0  30908-4 0  9999",
    "TLE_LINE2": "2 53486  97.6027  74.3340 0001994  91.6734 268.4719 15.01257821178222",
    "COMMENT": "Grouped by shell and plane from TLE"
  },
  {
    "OBJECT_NAME": "STARLINK-4432",
    "OBJECT_ID": "22099Y",
    "EPOCH": "2025-11-11T07:02:19.378176",
    "MEAN_MOTION": 15.05655344,
    "ECCENTRICITY": 5.65e-05,
    "INCLINATION": 97.6014,
    "RA_OF_ASC_NODE": 74.5078,
    "ARG_OF_PERICENTER": 118.405,
    "MEAN_ANOMALY": 241.7234,
    "EPHEMERIS_TYPE": 0,
    "CLASSIFICATION_TYPE": "U",
    "NORAD_CAT_ID": 53487,
    "ELEMENT_SET_NO": 999,
    "REV_AT_EPOCH": 17823,
    "BSTAR": 0.00013956,
    "MEAN_MOTION_DOT": 1.954e-05,
    "MEAN_MOTION_DDOT": 0.0,
    "TLE_LINE1": "1 53487U 22099Y   25315.29327984  .00001954  00000+0  13956-3 0  9994",
    "TLE_LINE2": "2 53487  97.6014  74.5078 0000565 118.4050 241.7234 15.05655344178234",
    "COMMENT": "Grouped by shell and plane from TLE"
  },
  {
    "OBJECT_NAME": "STARLINK-4421",
    "OBJECT_ID": "22099Z",
    "EPOCH": "2025-11-11T06:30:25.993152",
    "MEAN_MOTION": 15.05646837,
    "ECCENTRICITY": 6.81e-05,
    "INCLINATION": 97.6042,
    "RA_OF_ASC_NODE": 74.5531,
    "ARG_OF_PERICENTER": 129.1916,
    "MEAN_ANOMALY": 230.9371,
    "EPHEMERIS_TYPE": 0,
    "CLASSIFICATION_TYPE": "U",
    "NORAD_CAT_ID": 53488,
    "ELEMENT_SET_NO": 999,
    "REV_AT_EPOCH": 17823,
    "BSTAR": 0.00015066,
    "MEAN_MOTION_DOT": 2.114e-05,
    "MEAN_MOTION_DDOT": 0.0,
    "TLE_LINE1": "1 53488U 22099Z   25315.27113418  .00002114  00000+0  15066-3 0  9991",
    "TLE_LINE2": "2 53488  97.6042  74.5531 0000681 129.1916 230.9371 15.05646837178238",
    "COMMENT": "Grouped by shell and plane from TLE"
  },
  {
    "OBJECT_NAME": "STARLINK-4392",
    "OBJECT_ID": "22099AA",
    "EPOCH": "2025-11-11T06:10:07.479264",
    "MEAN_MOTION": 15.0126229,
    "ECCENTRICITY": 0.0001535,
    "INCLINATION": 97.6032,
    "RA_OF_ASC_NODE": 74.2494,
    "ARG_OF_PERICENTER": 87.9861,
    "MEAN_ANOMALY": 272.1539,
    "EPHEMERIS_TYPE": 0,
    "CLASSIFICATION_TYPE": "U",
    "NORAD_CAT_ID": 53489,
    "ELEMENT_SET_NO": 999,
    "REV_AT_EPOCH": 17821,
    "BSTAR": 2.5995000000000004e-05,
    "MEAN_MOTION_DOT": 2.76e-06,
    "MEAN_MOTION_DDOT": 0.0,
    "TLE_LINE1": "1 53489U 22099AA  25315.25703101  .00000276  00000+0  25995-4 0  9994",
    "TLE_LINE2": "2 53489  97.6032  74.2494 0001535  87.9861 272.1539 15.01262290178217",
    "COMMENT": "Grouped by shell and plane from TLE"
  },
  {
    "OBJECT_NAME": "STARLINK-4387",
    "OBJECT_ID": "22099AB",
    "EPOCH": "2025-11-11T07:14:17.414880",
    "MEAN_MOTION": 15.05651136,
    "ECCENTRICITY": 0.0001343,
    "INCLINATION": 97.6028,
    "RA_OF_ASC_NODE": 74.5032,
    "ARG_OF_PERICENTER": 85.9176,
    "MEAN_ANOMALY": 274.2204,
    "EPHEMERIS_TYPE": 0,
    "CLASSIFICATION_TYPE": "U",
    "NORAD_CAT_ID": 53490,
    "ELEMENT_SET_NO": 999,
    "REV_AT_EPOCH": 17822,
    "BSTAR": 7.019900000000001e-05,
    "MEAN_MOTION_DOT": 9.52e-06,
    "MEAN_MOTION_DDOT": 0.0,
    "TLE_LINE1": "1 53490U 22099AB  25315.30159045  .00000952  00000+0  70199-4 0  9991",
    "TLE_LINE2": "2 53490  97.6028  74.5032 0001343  85.9176 274.2204 15.05651136178227",
    "COMMENT": "Grouped by shell and plane from TLE"
  },
  {
    "OBJECT_NAME": "STARLINK-4450",
    "OBJECT_ID": "22099AC",
    "EPOCH": "2025-11-11T07:24:45.520416",
    "MEAN_MOTION": 15.01263401,
    "ECCENTRICITY": 0.0003545,
    "INCLINATION": 97.6017,
    "RA_OF_ASC_NODE": 74.3149,
    "ARG_OF_PERICENTER": 230.3781,
    "MEAN_ANOMALY": 129.7131,
    "EPHEMERIS_TYPE": 0,
    "CLASSIFICATION_TYPE": "U",
    "NORAD_CAT_ID": 53491,
    "ELEMENT_SET_NO": 999,
    "REV_AT_EPOCH": 17822,
    "BSTAR": 0.00015657,
    "MEAN_MOTION_DOT": 1.954e-05,
    "MEAN_MOTION_DDOT": 0.0,
    "TLE_LINE1": "1 53491U 22099AC  25315.30886019  .00001954  00000+0  15657-3 0  9990",
    "TLE_LINE2": "2 53491  97.6017  74.3149 0003545 230.3781 129.7131 15.01263401178220",
    "COMMENT": "Grouped by shell and plane from TLE"
  },
  {
    "OBJECT_NAME": "STARLINK-4451",
    "OBJECT_ID": "22099AD",
    "EPOCH": "2025-11-11T07:32:24.624960",
    "MEAN_MOTION": 15.01264292,
    "ECCENTRICITY": 0.0001382,
    "INCLINATION": 97.6011,
    "RA_OF_ASC_NODE": 74.3213,
    "ARG_OF_PERICENTER": 236.7629,
    "MEAN_ANOMALY": 123.3463,
    "EPHEMERIS_TYPE": 0,
    "CLASSIFICATION_TYPE": "U",
    "NORAD_CAT_ID": 53492,
    "ELEMENT_SET_NO": 999,
    "REV_AT_EPOCH": 17822,
    "BSTAR": 0.00015135000000000002,
    "MEAN_MOTION_DOT": 1.886e-05,
    "MEAN_MOTION_DDOT": 0.0,
    "TLE_LINE1": "1 53492U 22099AD  25315.31417390  .00001886  00000+0  15135-3 0  9999",
    "TLE_LINE2": "2 53492  97.6011  74.3213 0001382 236.7629 123.3463 15.01264292178222",
    "COMMENT": "Grouped by shell and plane from TLE"
  },
  {
    "OBJECT_NAME": "STARLINK-4340",
    "OBJECT_ID": "22099AF",
    "EPOCH": "2025-11-11T06:26:26.233152",
    "MEAN_MOTION": 15.05667834,
    "ECCENTRICITY": 0.0001749,
    "INCLINATION": 97.6039,
    "RA_OF_ASC_NODE": 74.5346,
    "ARG_OF_PERICENTER": 83.2101,
    "MEAN_ANOMALY": 276.9325,
    "EPHEMERIS_TYPE": 0,
    "CLASSIFICATION_TYPE": "U",
    "NORAD_CAT_ID": 53494,
    "ELEMENT_SET_NO": 999,
    "REV_AT_EPOCH": 17823,
    "BSTAR": 0.0,
    "MEAN_MOTION_DOT": -2.707e-05,
    "MEAN_MOTION_DDOT": 0.0,
    "TLE_LINE1": "1 53494U 22099AF  25315.26835918 -.00002707  00000+0 -18334-3 0  9994",
    "TLE_LINE2": "2 53494  97.6039  74.5346 0001749  83.2101 276.9325 15.05667834178236",
    "COMMENT": "Grouped by shell and plane from TLE"
  },
  {
    "OBJECT_NAME": "STARLINK-4429",
    "OBJECT_ID": "22099AG",
    "EPOCH": "2025-11-11T07:21:44.268768",
    "MEAN_MOTION": 15.01278043,
    "ECCENTRICITY": 0.0003706,
    "INCLINATION": 97.6015,
    "RA_OF_ASC_NODE": 74.3043,
    "ARG_OF_PERICENTER": 205.7377,
    "MEAN_ANOMALY": 154.3664,
    "EPHEMERIS_TYPE": 0,
    "CLASSIFICATION_TYPE": "U",
    "NORAD_CAT_ID": 53495,
    "ELEMENT_SET_NO": 999,
    "REV_AT_EPOCH": 17822,
    "BSTAR": 0.00030359,
    "MEAN_MOTION_DOT": 3.845e-05,
    "MEAN_MOTION_DDOT": 0.0,
    "TLE_LINE1": "1 53495U 22099AG  25315.30676237  .00003845  00000+0  30359-3 0  9990",
    "TLE_LINE2": "2 53495  97.6015  74.3043 0003706 205.7377 154.3664 15.01278043178224",
    "COMMENT": "Grouped by shell and plane from TLE"
  }
]